{"type": "FeatureCollection", "features": [ {"type": "Feature", "properties": {"norad_id": 61182, "name": "GSAT0232 (GALILEO 32)", "group": "gnss", "lat": -28.62439565897209, "lon": -156.05648161997394, "alt_km": 23228.542776714112, "timestamp": "2025-12-21T11:31:43.098633+00:00", "meta": {"OBJECT_NAME": "GSAT0232 (GALILEO 32)", "OBJECT_ID": "2024-167A", "EPOCH": "2025-12-21T03:10:03.152352", "MEAN_MOTION": 1.7047363, "ECCENTRICITY": 0.0001887, "INCLINATION": 55.2384, "RA_OF_ASC_NODE": 226.2006, "ARG_OF_PERICENTER": 206.1545, "MEAN_ANOMALY": 264.4477, "EPHEMERIS_TYPE": 0, "CLASSIFICATION_TYPE": "U", "NORAD_CAT_ID": 61182, "ELEMENT_SET_NO": 999, "REV_AT_EPOCH": 784, "BSTAR": 0, "MEAN_MOTION_DOT": 7.3e-07, "MEAN_MOTION_DDOT": 0}, "tle": {"line1": "1 61182U 24167A   25355.13198093  .00000073  00000+0  00000+0 0  9990", "line2": "2 61182  55.2384 226.2006 0001887 206.1545 264.4477  1.70473630  7846"}}, "geometry": {"type": "Point", "coordinates": [-156.05648161997394, -28.62439565897209]}}, {"type": "Feature", "properties": {"norad_id": 61183, "name": "GSAT0226 (GALILEO 31)", "group": "gnss", "lat": 53.160698649673, "lon": -65.86826369229364, "alt_km": 23213.12331593921, "timestamp": "2025-12-21T11:31:43.098647+00:00", "meta": {"OBJECT_NAME": "GSAT0226 (GALILEO 31)", "OBJECT_ID": "2024-167B", "EPOCH": "2025-12-21T00:56:32.993664", "MEAN_MOTION": 1.70473742, "ECCENTRICITY": 0.0001135, "INCLINATION": 55.237, "RA_OF_ASC_NODE": 226.2086, "ARG_OF_PERICENTER": 107.254, "MEAN_ANOMALY": 59.1101, "EPHEMERIS_TYPE": 0, "CLASSIFICATION_TYPE": "U", "NORAD_CAT_ID": 61183, "ELEMENT_SET_NO": 999, "REV_AT_EPOCH": 781, "BSTAR": 0, "MEAN_MOTION_DOT": 7.3e-07, "MEAN_MOTION_DDOT": 0}, "tle": {"line1": "1 61183U 24167B   25355.03927076  .00000073  00000+0  00000+0 0  9991", "line2": "2 61183  55.2370 226.2086 0001135 107.2540  59.1101  1.70473742  7816"}}, "geometry": {"type": "Point", "coordinates": [-65.86826369229364, 53.160698649673]}}, {"type": "Feature", "properties": {"norad_id": 61186, "name": "BEIDOU-3 M25 (C47)", "group": "gnss", "lat": -12.138352992997953, "lon": 137.17255638649272, "alt_km": 21533.810995362055, "timestamp": "2025-12-21T11:31:43.098659+00:00", "meta": {"OBJECT_NAME": "BEIDOU-3 M25 (C47)", "OBJECT_ID": "2024-168B", "EPOCH": "2025-12-20T22:07:53.377248", "MEAN_MOTION": 1.86230245, "ECCENTRICITY": 0.0005454, "INCLINATION": 54.6348, "RA_OF_ASC_NODE": 308.4372, "ARG_OF_PERICENTER": 299.6064, "MEAN_ANOMALY": 241.0883, "EPHEMERIS_TYPE": 0, "CLASSIFICATION_TYPE": "U", "NORAD_CAT_ID": 61186, "ELEMENT_SET_NO": 999, "REV_AT_EPOCH": 846, "BSTAR": 0, "MEAN_MOTION_DOT": -6.6e-07, "MEAN_MOTION_DDOT": 0}, "tle": {"line1": "1 61186U 24168B   25354.92214557 -.00000066  00000+0  00000+0 0  9998", "line2": "2 61186  54.6348 308.4372 0005454 299.6064 241.0883  1.86230245  8460"}}, "geometry": {"type": "Point", "coordinates": [137.17255638649272, -12.138352992997953]}}, {"type": "Feature", "properties": {"norad_id": 61187, "name": "BEIDOU-3 M27 (C49)", "group": "gnss", "lat": -24.144015664741552, "lon": -70.16847474768453, "alt_km": 21524.341058927166, "timestamp": "2025-12-21T11:31:43.098671+00:00", "meta": {"OBJECT_NAME": "BEIDOU-3 M27 (C49)", "OBJECT_ID": "2024-168C", "EPOCH": "2025-12-21T03:52:51.964320", "MEAN_MOTION": 1.86230388, "ECCENTRICITY": 0.0002532, "INCLINATION": 54.6301, "RA_OF_ASC_NODE": 308.4125, "ARG_OF_PERICENTER": 340.0564, "MEAN_ANOMALY": 136.2023, "EPHEMERIS_TYPE": 0, "CLASSIFICATION_TYPE": "U", "NORAD_CAT_ID": 61187, "ELEMENT_SET_NO": 999, "REV_AT_EPOCH": 594, "BSTAR": 0, "MEAN_MOTION_DOT": -6.4e-07, "MEAN_MOTION_DDOT": 0}, "tle": {"line1": "1 61187U 24168C   25355.16171255 -.00000064  00000+0  00000+0 0  9991", "line2": "2 61187  54.6301 308.4125 0002532 340.0564 136.2023  1.86230388  5945"}}, "geometry": {"type": "Point", "coordinates": [-70.16847474768453, -24.144015664741552]}}, {"type": "Feature", "properties": {"norad_id": 62339, "name": "GPS BIII-7  (PRN 01)", "group": "gnss", "lat": 54.854392591613525, "lon": 74.95205466873904, "alt_km": 20184.760959588115, "timestamp": "2025-12-21T11:31:43.098682+00:00", "meta": {"OBJECT_NAME": "GPS BIII-7  (PRN 01)", "OBJECT_ID": "2024-242A", "EPOCH": "2025-12-18T08:46:28.895808", "MEAN_MOTION": 2.00568182, "ECCENTRICITY": 0.0012509, "INCLINATION": 54.922, "RA_OF_ASC_NODE": 341.5124, "ARG_OF_PERICENTER": 345.6877, "MEAN_ANOMALY": 17.1618, "EPHEMERIS_TYPE": 0, "CLASSIFICATION_TYPE": "U", "NORAD_CAT_ID": 62339, "ELEMENT_SET_NO": 999, "REV_AT_EPOCH": 763, "BSTAR": 0, "MEAN_MOTION_DOT": -8.5e-07, "MEAN_MOTION_DDOT": 0}, "tle": {"line1": "1 62339U 24242A   25352.36561222 -.00000085  00000+0  00000+0 0  9993", "line2": "2 62339  54.9220 341.5124 0012509 345.6877  17.1618  2.00568182  7636"}}, "geometry": {"type": "Point", "coordinates": [74.95205466873904, 54.854392591613525]}}, {"type": "Feature", "properties": {"norad_id": 62850, "name": "NVS-02 (IRNSS-1K)", "group": "gnss", "lat": -9.039947715421754, "lon": 169.02972062316107, "alt_km": 36605.623932095834, "timestamp": "2025-12-21T11:31:43.098697+00:00", "meta": {"OBJECT_NAME": "NVS-02 (IRNSS-1K)", "OBJECT_ID": "2025-020A", "EPOCH": "2025-12-20T08:38:20.194080", "MEAN_MOTION": 2.17600288, "ECCENTRICITY": 0.7347343, "INCLINATION": 20.9647, "RA_OF_ASC_NODE": 324.9017, "ARG_OF_PERICENTER": 31.1731, "MEAN_ANOMALY": 356.6243, "EPHEMERIS_TYPE": 0, "CLASSIFICATION_TYPE": "U", "NORAD_CAT_ID": 62850, "ELEMENT_SET_NO": 999, "REV_AT_EPOCH": 708, "BSTAR": 0.00012417, "MEAN_MOTION_DOT": 1.29e-06, "MEAN_MOTION_DDOT": 0}, "tle": {"line1": "1 62850U 25020A   25354.35995595  .00000129  00000+0  12417-3 0  9998", "line2": "2 62850  20.9647 324.9017 7347343  31.1731 356.6243  2.17600288  7082"}}, "geometry": {"type": "Point", "coordinates": [169.02972062316107, -9.039947715421754]}}, {"type": "Feature", "properties": {"norad_id": 62876, "name": "QZS-6 (QZSS/PRN 200)", "group": "gnss", "lat": -0.05104699655663125, "lon": -6.217924892652813, "alt_km": 35784.34289031255, "timestamp": "2025-12-21T11:31:43.098709+00:00", "meta": {"OBJECT_NAME": "QZS-6 (QZSS/PRN 200)", "OBJECT_ID": "2025-023A", "EPOCH": "2025-12-20T21:55:38.685216", "MEAN_MOTION": 1.00272257, "ECCENTRICITY": 0.00014984, "INCLINATION": 0.0502, "RA_OF_ASC_NODE": 69.8334, "ARG_OF_PERICENTER": 209.2047, "MEAN_ANOMALY": 230.1578, "EPHEMERIS_TYPE": 0, "CLASSIFICATION_TYPE": "U", "NORAD_CAT_ID": 62876, "ELEMENT_SET_NO": 999, "REV_AT_EPOCH": 317, "BSTAR": 0, "MEAN_MOTION_DOT": -2.1e-06, "MEAN_MOTION_DDOT": 0}, "tle": {"line1": "1 62876U 25023A   25354.91364219 -.00000210  00000+0  00000+0 0  9997", "line2": "2 62876   0.0502  69.8334 0001498 209.2047 230.1578  1.00272257  3170"}}, "geometry": {"type": "Point", "coordinates": [-6.217924892652813, -0.05104699655663125]}}, {"type": "Feature", "properties": {"norad_id": 63130, "name": "COSMOS 2584 (704K)", "group": "gnss", "lat": 31.614594714821667, "lon": -117.81517080688872, "alt_km": 19120.71980180585, "timestamp": "2025-12-21T11:31:43.098721+00:00", "meta": {"OBJECT_NAME": "COSMOS 2584 (704K)", "OBJECT_ID": "2025-042A", "EPOCH": "2025-12-18T11:25:35.911776", "MEAN_MOTION": 2.13103072, "ECCENTRICITY": 0.00077091, "INCLINATION": 64.979, "RA_OF_ASC_NODE": 78.9506, "ARG_OF_PERICENTER": 218.5301, "MEAN_ANOMALY": 141.4378, "EPHEMERIS_TYPE": 0, "CLASSIFICATION_TYPE": "U", "NORAD_CAT_ID": 63130, "ELEMENT_SET_NO": 999, "REV_AT_EPOCH": 619, "BSTAR": 0, "MEAN_MOTION_DOT": -3.8e-07, "MEAN_MOTION_DDOT": 0}, "tle": {"line1": "1 63130U 25042A   25352.47611009 -.00000038  00000+0  00000+0 0  9991", "line2": "2 63130  64.9790  78.9506 0007709 218.5301 141.4378  2.13103072  6191"}}, "geometry": {"type": "Point", "coordinates": [-117.81517080688872, 31.614594714821667]}}, {"type": "Feature", "properties": {"norad_id": 64202, "name": "GPS BIII-8  (PRN 21)", "group": "gnss", "lat": -53.62786553839359, "lon": -32.91647350439547, "alt_km": 20175.166622776957, "timestamp": "2025-12-21T11:31:43.098732+00:00", "meta": {"OBJECT_NAME": "GPS BIII-8  (PRN 21)", "OBJECT_ID": "2025-116A", "EPOCH": "2025-12-20T02:23:29.620896", "MEAN_MOTION": 2.00557984, "ECCENTRICITY": 0.00057225, "INCLINATION": 55.1107, "RA_OF_ASC_NODE": 38.344, "ARG_OF_PERICENTER": 309.6695, "MEAN_ANOMALY": 54.4969, "EPHEMERIS_TYPE": 0, "CLASSIFICATION_TYPE": "U", "NORAD_CAT_ID": 64202, "ELEMENT_SET_NO": 999, "REV_AT_EPOCH": 428, "BSTAR": 0, "MEAN_MOTION_DOT": -6.1e-07, "MEAN_MOTION_DDOT": 0}, "tle": {"line1": "1 64202U 25116A   25354.09964839 -.00000061  00000+0  00000+0 0  9992", "line2": "2 64202  55.1107  38.3440 0005722 309.6695  54.4969  2.00557984  4282"}}, "geometry": {"type": "Point", "coordinates": [-32.91647350439547, -53.62786553839359]}}, {"type": "Feature", "properties": {"norad_id": 65590, "name": "COSMOS 2596 (708K)", "group": "gnss", "lat": -63.86079624358671, "lon": -144.77217092828843, "alt_km": 19110.702404954354, "timestamp": "2025-12-21T11:31:43.098744+00:00", "meta": {"OBJECT_NAME": "COSMOS 2596 (708K)", "OBJECT_ID": "2025-206B", "EPOCH": "2025-12-21T04:46:20.434368", "MEAN_MOTION": 2.13100447, "ECCENTRICITY": 0.001408, "INCLINATION": 64.7398, "RA_OF_ASC_NODE": 321.1811, "ARG_OF_PERICENTER": 307.1561, "MEAN_ANOMALY": 100.0087, "EPHEMERIS_TYPE": 0, "CLASSIFICATION_TYPE": "U", "NORAD_CAT_ID": 65590, "ELEMENT_SET_NO": 999, "REV_AT_EPOCH": 212, "BSTAR": 0, "MEAN_MOTION_DOT": -4.9e-07, "MEAN_MOTION_DDOT": 0}, "tle": {"line1": "1 65590U 25206B   25355.19884762 -.00000049  00000+0  00000+0 0  9997", "line2": "2 65590  64.7398 321.1811 0014080 307.1561 100.0087  2.13100447  2120"}}, "geometry": {"type": "Point", "coordinates": [-144.77217092828843, -63.86079624358671]}}]}